# From MPEC 2026-E44
C/2022 A3 (Lemmon-ATLAS),e,88.3623,325.4487,234.8975,980.4163,0.0000321,0.99622075,0.0000,09/29.1523/2023,2000,g  8.0,4.0
# From MPEC 2026-E44
P/2022 BV9 (Lemmon),e,11.9213,337.3017,16.2497,4.367319,0.1079895,0.23318374,216.9109,04/21.0/2026,2000,g  9.5,4.0
# From MPEC 2026-E44
P/2022 C1 (PANSTARRS),e,4.7635,113.0946,9.5380,7.239096,0.0506031,0.44920458,82.3257,04/21.0/2026,2000,g 12.0,4.0
# From MPEC 2026-E44
P/2022 C2 (PANSTARRS),e,9.9811,135.2449,89.1331,6.032582,0.0665195,0.44241229,90.0368,04/21.0/2026,2000,g 12.5,4.0
# From MPEC 2026-E44
P/2022 C3 (PANSTARRS),e,12.8243,139.0394,93.7846,9.616013,0.0330530,0.54569041,45.9651,04/21.0/2026,2000,g 11.5,4.0
# From MPEC 2026-E44
P/2022 D1 (PANSTARRS),e,44.0520,47.9274,88.6964,7.407899,0.0488834,0.54818887,82.8905,04/21.0/2026,2000,g 12.5,4.0
# From MPEC 2022-L66
P/2022 E1 (Christensen),e,19.0072,113.3397,114.8138,3.777556,0.1342418,0.22062306,189.6141,04/21.0/2026,2000,g 13.5,4.0
# From MPEC 2026-FC3
C/2022 E2 (ATLAS),h,09/14.2992/2024,137.1411,125.3960,41.7820,1.000662,3.667696,2000,5.0,4.0
# From MPEC 2026-E44
C/2022 E3 (ZTF),h,01/12.3189/2023,109.1816,302.4866,145.8673,1.000033,1.116614,2000,7.5,4.0
# From MPEC 2026-E44
C/2022 F1 (ATLAS),e,57.9813,350.6365,278.3998,74854,0.0000000,0.99992010,0.0000,08/06.3085/2022,2000,g  7.0,4.0
# From MPEC 2026-E44
C/2022 H1 (PANSTARRS),e,49.8648,6.3056,246.2898,862.2399,0.0000389,0.99108332,0.0000,01/18.4664/2024,2000,g  6.0,4.0
# From MPEC 2026-E44
C/2022 JK5 (PANSTARRS),e,16.8272,59.6526,247.3578,43.46689,0.0034393,0.93798317,3.7436,04/21.0/2026,2000,g 11.0,4.0
# From MPEC 2026-E44
C/2022 L2 (ATLAS),h,03/11.9413/2024,129.3096,39.2532,199.9253,1.000308,2.694295,2000,6.5,4.0
# From MPEC 2026-G41
C/2022 N2 (PANSTARRS),h,08/01.0500/2025,5.5031,319.7312,75.4484,1.003895,3.826070,2000,6.0,4.0
# From MPEC 2026-E44
C/2022 O1 (ATLAS),h,02/14.7282/2022,71.0711,49.9034,268.9295,1.000384,7.435242,2000,6.0,4.0
# From MPEC 2026-FC5
P/2022 P2 (ZTF),e,12.4417,291.1671,137.8148,4.493433,0.1034753,0.55766398,142.8077,04/21.0/2026,2000,g 12.5,4.0
# From MPEC 2026-G41
C/2022 QE78 (ATLAS),e,36.6584,119.8919,0.6580,1779,0.0000131,0.99692101,0.0000,09/12.2059/2025,2000,g  5.0,4.0
# From MPEC 2026-E44
P/2022 R1 (PANSTARRS),e,7.3904,175.5822,221.6129,7.117483,0.0519056,0.49973887,48.3493,04/21.0/2026,2000,g 11.5,4.0
# From MPEC 2026-E44
C/2022 R3 (Leonard),h,03/05.9600/2023,43.0591,8.2687,72.9606,1.001460,5.134762,2000,9.0,4.0
# From MPEC 2026-E44
P/2022 R5 (PANSTARRS),e,15.2924,115.0392,240.4727,3.070865,0.1831525,0.19448326,261.2808,04/21.0/2026,2000,g 16.0,4.0
# From MPEC 2026-G41
C/2022 R6 (PANSTARRS),h,08/27.0740/2025,57.0320,150.7769,319.9935,1.005032,6.566169,2000,5.0,4.0
# From MPEC 2026-E44
P/2022 S1 (PANSTARRS),e,34.5620,136.0846,262.8578,6.408152,0.0607582,0.50721041,81.5119,04/21.0/2026,2000,g 13.0,4.0
# From MPEC 2026-E44
C/2022 S4 (Lemmon),e,101.1988,220.1790,268.5571,1433,0.0000182,0.99807328,0.0000,07/18.7925/2024,2000,g  8.0,4.0
# From MPEC 2026-E44
C/2022 T1 (Lemmon),h,02/17.5415/2024,22.5380,236.9020,324.2982,1.000652,3.443467,2000,9.0,4.0
# From MPEC 2026-E44
C/2022 U1 (Leonard),h,03/26.2214/2024,128.1409,72.5327,78.6177,1.000669,4.201834,2000,8.5,4.0
# From MPEC 2026-E44
C/2022 U3 (Bok),e,33.6612,272.7865,189.1565,11136,0.0000008,0.99956645,0.0000,07/28.6892/2024,2000,g  7.5,4.0
# From MPEC 2026-E44
C/2022 U4 (Bok),e,52.0602,132.9184,88.9644,3167,0.0000055,0.99908554,0.0000,08/03.7582/2023,2000,g 10.5,4.0
# From MPEC 2026-E44
C/2022 V2 (Lemmon),e,98.9092,332.8316,168.9786,36.66651,0.0044391,0.94366133,4.0007,04/21.0/2026,2000,g 12.0,4.0
# From MPEC 2026-E44
P/2022 W1 (Rankin),e,13.4608,38.8425,17.9667,6.977698,0.0534732,0.51614727,70.2184,04/21.0/2026,2000,g 12.5,4.0
# From MPEC 2026-E44
C/2022 W2 (ATLAS),e,63.4909,320.4213,123.3538,340.7098,0.0001567,0.99082091,0.0000,03/08.5832/2023,2000,g 11.5,4.0
# From MPEC 2026-E43
C/2023 A3 (Tsuchinshan-ATLAS),h,09/27.7826/2024,139.1055,21.6332,308.5580,1.000167,0.391540,2000,6.5,3.2
# From MPEC 2026-E44
P/2023 B1 (PANSTARRS),e,14.5867,78.5646,81.9385,7.071492,0.0524128,0.13143297,56.5863,04/21.0/2026,2000,g  5.5,4.0
# From MPEC 2026-E44
P/2023 B3 (PANSTARRS),e,9.1557,153.9703,240.3934,4.552418,0.1014707,0.12185335,208.4482,04/21.0/2026,2000,g 10.5,4.0
# From MPEC 2026-FC3
C/2023 C2 (ATLAS),e,48.3224,301.0064,357.4210,1699,0.0000141,0.99860591,0.0000,11/16.6846/2024,2000,g  7.0,4.0
# From MPEC 2026-G41
C/2023 F3 (ATLAS),h,02/02.7314/2025,145.9628,109.4683,265.5549,1.002843,5.191540,2000,6.0,4.0
# From MPC191587
C/2023 H1 (PANSTARRS),e,21.7829,292.6463,333.7262,742.8798,0.0000487,0.99401419,0.0000,11/28.4880/2024,2000,g  8.5,4.0
# From MPEC 2026-E44
C/2023 H3 (PANSTARRS),e,2.4883,55.0776,193.2351,13.61596,0.0196170,0.61589056,15.5562,04/21.0/2026,2000,g 10.0,4.0
# From MPEC 2026-FR0
C/2023 H5 (Lemmon),h,06/30.4228/2025,97.8548,159.4727,60.1213,1.000566,4.312877,2000,7.0,4.0
# From MPEC 2026-E44
P/2023 JN16 (Lemmon),e,3.7020,11.7793,353.5177,2.697911,0.2224142,0.14777358,105.6963,04/21.0/2026,2000,g 14.0,4.0
# From MPEC 2026-E44
P/2023 M1 (PANSTARRS),e,12.2920,216.8648,79.6906,6.838292,0.0551166,0.58664370,47.3401,04/21.0/2026,2000,g 13.5,4.0
# From MPEC 2026-E44
P/2023 M2 (PANSTARRS),e,19.7132,83.2574,243.7508,5.588705,0.0745997,0.36911784,74.4522,04/21.0/2026,2000,g 12.5,4.0
# From MPEC 2026-E44
P/2023 M4 (ATLAS),e,7.5920,296.2704,320.3807,5.442402,0.0776280,0.27914024,114.0489,04/21.0/2026,2000,g  7.5,4.0
# From MPEC 2026-E44
C/2023 P1 (Nishimura),e,132.4838,66.7814,116.1870,55.91180,0.0023575,0.99599737,0.0000,09/17.5029/2023,2000,g 10.0,4.0
# From MPEC 2026-E44
C/2023 Q1 (PANSTARRS),h,12/01.0901/2024,36.6429,7.1242,84.4270,1.004749,2.576373,2000,10.0,4.0
# From MPEC 2026-E44
C/2023 Q2 (PANSTARRS),e,104.0615,92.6773,171.6536,329.0064,0.0001652,0.99024988,0.0000,06/23.7881/2024,2000,g 11.5,4.0
# From MPEC 2026-G41
C/2023 R1 (PANSTARRS),h,04/13.3849/2026,149.3149,62.5694,144.2610,1.002382,3.570071,2000,6.0,4.0
# From MPEC 2026-E44
C/2023 R2 (PANSTARRS),h,08/12.2270/2024,30.6967,188.8606,337.3430,1.000377,0.904823,2000,10.5,4.0
# From MPEC 2026-E44
C/2023 RN3 (ATLAS),e,10.3516,207.0649,130.6237,10.15925,0.0304377,0.48981281,36.1285,04/21.0/2026,2000,g  7.5,4.0
# From MPEC 2026-EC7
C/2023 RS61 (PANSTARRS),e,19.9468,347.0348,119.5368,11.89479,0.0240253,0.32796845,336.9921,04/21.0/2026,2000,g  6.8,4.0
# From MPEC 2026-E44
P/2023 S1 (PANSTARRS),e,9.1575,317.2861,180.3607,3.844955,0.1307276,0.31852606,54.9901,04/21.0/2026,2000,g 11.5,4.0
# From MPEC 2026-E44
P/2023 T1 (PANSTARRS),e,6.6120,249.5795,202.9142,4.226814,0.1134186,0.33308326,79.1711,04/21.0/2026,2000,g 14.0,4.0
# From MPEC 2026-E44
C/2023 T3 (Fuls),e,27.2177,246.0019,302.8569,982.2082,0.0000320,0.99638735,0.0000,01/25.4439/2025,2000,g  8.5,4.0
# From MPEC 2026-E44
C/2023 TD22 (Lemmon),e,170.4880,5.5797,32.5322,48.32150,0.0029342,0.95125024,1.7068,04/21.0/2026,2000,g 12.5,4.0
# From MPC191587
C/2023 U1 (Fuls),e,108.1481,305.7996,255.6698,4169,0.0000037,0.99880691,0.0000,10/13.1958/2024,2000,g  8.0,4.0
# From MPEC 2026-FR0
C/2023 V1 (Lemmon),h,07/13.0708/2025,102.0080,15.0530,103.3213,1.000359,5.092648,2000,8.5,4.0
# From MPEC 2026-FC5
P/2023 V2 (PANSTARRS),e,9.8883,95.4728,330.5146,7.215332,0.0508534,0.56966999,41.0677,04/21.0/2026,2000,g 13.5,4.0
# From MPEC 2026-E44
C/2023 V3 (PANSTARRS),e,40.6286,91.2664,291.8114,12.69321,0.0217945,0.64568712,21.6665,04/21.0/2026,2000,g 11.5,4.0
# From MPEC 2026-E44
C/2023 V4 (Camarasa-Duszanowicz),h,05/30.4548/2024,67.1048,66.3262,50.8844,1.001303,1.122141,2000,12.0,4.0
# From MPEC 2026-E44
P/2023 V6 (PANSTARRS),e,3.9825,189.3982,191.4359,5.273849,0.0813790,0.17538264,101.4724,04/21.0/2026,2000,g 11.5,4.0
# From MPEC 2026-E44
C/2023 X1 (Leonard),e,110.5943,136.9630,321.4896,155.4346,0.0005086,0.99387125,0.0000,10/17.8100/2023,2000,g 13.5,3.2
# From MPEC 2026-FR0
C/2023 X2 (Lemmon),h,12/28.4938/2025,76.9807,66.3018,64.8038,1.000094,5.088606,2000,8.5,3.2
# From MPEC 2026-E44
P/2023 X3 (PANSTARRS),e,4.4829,62.0184,40.9421,4.247411,0.1125946,0.28610482,82.0351,04/21.0/2026,2000,g 15.5,4.0
# From MPEC 2026-E44
C/2023 X4 (Hogan),e,11.5904,28.7702,100.6410,9.932610,0.0314854,0.63153937,21.9037,04/21.0/2026,2000,g 12.0,4.0
# From MPEC 2026-E44
C/2023 X7 (PANSTARRS),e,69.1275,119.2056,354.3883,4411,0.0000034,0.99890706,0.0000,05/14.9695/2025,2000,g  9.0,4.0
# From MPEC 2026-E44
P/2023 Y2 (Gibbs),e,6.9917,79.2310,16.9512,3.748578,0.1358014,0.39211582,133.7372,04/21.0/2026,2000,g 15.5,4.0
# From MPEC 2026-G41
C/2024 A1 (ATLAS),e,94.5052,112.1401,353.1965,18316,0.0000004,0.99978848,0.0000,06/12.9699/2025,2000,g  7.0,4.0
# From MPEC 2026-E44
C/2024 A2 (ATLAS),e,119.1178,78.1707,295.5021,32.13915,0.0054094,0.94149577,3.9075,04/21.0/2026,2000,g 12.5,4.0
# From MPEC 2026-E44
C/2024 B1 (Lemmon),h,10/07.7840/2024,70.8940,79.1883,66.2284,1.001235,1.633888,2000,13.0,4.0
# From MPEC 2026-E44
C/2024 B2 (Lemmon),e,99.8729,294.3878,130.3178,1207,0.0000235,0.99661991,0.0000,10/05.2923/2023,2000,g 11.5,4.0
# From MPEC 2026-E44
C/2024 C1 (PANSTARRS),e,14.2258,83.8117,94.5173,10.59745,0.0285695,0.58355755,17.0739,04/21.0/2026,2000,g 11.5,4.0
# From MPEC 2026-E44
C/2024 C2 (PANSTARRS),e,27.2836,66.4555,87.6403,16.25226,0.0150430,0.44671916,6.0774,04/21.0/2026,2000,g  6.0,4.0
# From MPEC 2026-E44
C/2024 C3 (PANSTARRS),e,22.4476,359.6966,159.7719,11.68332,0.0246805,0.42530120,22.0407,04/21.0/2026,2000,g  9.0,4.0
# From MPEC 2026-E43
C/2024 D1 (Lemmon),e,132.4478,179.6529,125.8019,25797,0.0000002,0.99974062,0.0000,12/03.6283/2027,2000,g  7.3,4.0
# From MPEC 2026-G41
C/2024 E1 (Wierzchos),h,01/20.7714/2026,75.2395,108.0799,243.6251,1.000229,0.566145,2000,7.0,4.0
# From MPEC 2026-E44
C/2024 E2 (Bok),e,155.6527,135.6596,358.2111,51.10241,0.0026980,0.84933770,2.4504,04/21.0/2026,2000,g  8.0,4.0
# From MPEC 2026-E44
P/2024 F1 (PANSTARRS),e,7.0067,251.5162,229.6011,3.446386,0.1540488,0.46023033,139.8975,04/21.0/2026,2000,g 16.0,4.0
# From MPEC 2026-FR0
